{
  "type": "FeatureCollection",
  "features": [
    {
      "type": "Feature",
      "properties": {
        "norad_id": 64694,
        "name": "GOSAT-GW (IBUKI GW)",
        "group": "resource",
        "lat": 71.50302739281324,
        "lon": -89.57651314804002,
        "alt_km": 660.9645355609582,
        "timestamp": "2025-12-26T03:50:11.745767+00:00",
        "meta_object_name": "GOSAT-GW (IBUKI GW)",
        "meta_object_id": "2025-141A",
        "meta_epoch": "2025-12-25T19:19:19.890048",
        "meta_mean_motion": 14.67561109,
        "meta_eccentricity": 0.0001427,
        "meta_inclination": 98.044,
        "meta_ra_of_asc_node": 295.0821,
        "meta_arg_of_pericenter": 82.0931,
        "meta_mean_anomaly": 278.0436,
        "meta_ephemeris_type": 0,
        "meta_classification_type": "U",
        "meta_norad_cat_id": 64694,
        "meta_element_set_no": 999,
        "meta_rev_at_epoch": 2641,
        "meta_bstar": 0.00019803,
        "meta_mean_motion_dot": 1.076e-05,
        "meta_mean_motion_ddot": 0,
        "tle_line1": "1 64694U 25141A   25359.80509132  .00001076  00000+0  19803-3 0  9991",
        "tle_line2": "2 64694  98.0440 295.0821 0001427  82.0931 278.0436 14.67561109 26413"
      },
      "geometry": {
        "type": "Point",
        "coordinates": [
          -89.57651314804002,
          71.50302739281324
        ]
      }
    },
    {
      "type": "Feature",
      "properties": {
        "norad_id": 64876,
        "name": "IONOSFERA-M 3",
        "group": "resource",
        "lat": 11.02960212109423,
        "lon": -40.039094871330036,
        "alt_km": 820.6818127402994,
        "timestamp": "2025-12-26T03:50:11.745777+00:00",
        "meta_object_name": "IONOSFERA-M 3",
        "meta_object_id": "2025-155A",
        "meta_epoch": "2025-12-25T21:01:36.335136",
        "meta_mean_motion": 14.21444175,
        "meta_eccentricity": 0.0001816,
        "meta_inclination": 98.5801,
        "meta_ra_of_asc_node": 321.3715,
        "meta_arg_of_pericenter": 38.779,
        "meta_mean_anomaly": 321.3518,
        "meta_ephemeris_type": 0,
        "meta_classification_type": "U",
        "meta_norad_cat_id": 64876,
        "meta_element_set_no": 999,
        "meta_rev_at_epoch": 2178,
        "meta_bstar": 5.9755e-05,
        "meta_mean_motion_dot": 8.8e-07,
        "meta_mean_motion_ddot": 0,
        "tle_line1": "1 64876U 25155A   25359.87611499  .00000088  00000+0  59755-4 0  9998",
        "tle_line2": "2 64876  98.5801 321.3715 0001816  38.7790 321.3518 14.21444175 21780"
      },
      "geometry": {
        "type": "Point",
        "coordinates": [
          -40.039094871330036,
          11.02960212109423
        ]
      }
    },
    {
      "type": "Feature",
      "properties": {
        "norad_id": 64877,
        "name": "IONOSFERA-M 4",
        "group": "resource",
        "lat": -11.97931240581614,
        "lon": 139.730945496287,
        "alt_km": 825.520410029807,
        "timestamp": "2025-12-26T03:50:11.745787+00:00",
        "meta_object_name": "IONOSFERA-M 4",
        "meta_object_id": "2025-155B",
        "meta_epoch": "2025-12-25T20:10:43.415328",
        "meta_mean_motion": 14.21445336,
        "meta_eccentricity": 0.0001254,
        "meta_inclination": 98.5801,
        "meta_ra_of_asc_node": 321.2566,
        "meta_arg_of_pericenter": 51.0913,
        "meta_mean_anomaly": 309.0376,
        "meta_ephemeris_type": 0,
        "meta_classification_type": "U",
        "meta_norad_cat_id": 64877,
        "meta_element_set_no": 999,
        "meta_rev_at_epoch": 2177,
        "meta_bstar": 6.5142e-05,
        "meta_mean_motion_dot": 1e-06,
        "meta_mean_motion_ddot": 0,
        "tle_line1": "1 64877U 25155B   25359.84078027  .00000100  00000+0  65142-4 0  9992",
        "tle_line2": "2 64877  98.5801 321.2566 0001254  51.0913 309.0376 14.21445336 21779"
      },
      "geometry": {
        "type": "Point",
        "coordinates": [
          139.730945496287,
          -11.97931240581614
        ]
      }
    },
    {
      "type": "Feature",
      "properties": {
        "norad_id": 64899,
        "name": "MICROCARB",
        "group": "resource",
        "lat": -81.83882611186736,
        "lon": 176.54413425144753,
        "alt_km": 673.7224641537423,
        "timestamp": "2025-12-26T03:50:11.745797+00:00",
        "meta_object_name": "MICROCARB",
        "meta_object_id": "2025-156A",
        "meta_epoch": "2025-12-25T16:50:02.395104",
        "meta_mean_motion": 14.72077609,
        "meta_eccentricity": 0.001765,
        "meta_inclination": 98.001,
        "meta_ra_of_asc_node": 74.8383,
        "meta_arg_of_pericenter": 105.9485,
        "meta_mean_anomaly": 254.3669,
        "meta_ephemeris_type": 0,
        "meta_classification_type": "U",
        "meta_norad_cat_id": 64899,
        "meta_element_set_no": 999,
        "meta_rev_at_epoch": 2244,
        "meta_bstar": 0.0001274,
        "meta_mean_motion_dot": 7.53e-06,
        "meta_mean_motion_ddot": 0,
        "tle_line1": "1 64899U 25156A   25359.70141661  .00000753  00000+0  12740-3 0  9996",
        "tle_line2": "2 64899  98.0010  74.8383 0017650 105.9485 254.3669 14.72077609 22440"
      },
      "geometry": {
        "type": "Point",
        "coordinates": [
          176.54413425144753,
          -81.83882611186736
        ]
      }
    },
    {
      "type": "Feature",
      "properties": {
        "norad_id": 64900,
        "name": "CO3D 3",
        "group": "resource",
        "lat": 67.45829967211404,
        "lon": -85.3287242658787,
        "alt_km": 498.2220499368532,
        "timestamp": "2025-12-26T03:50:11.745807+00:00",
        "meta_object_name": "CO3D 3",
        "meta_object_id": "2025-156B",
        "meta_epoch": "2025-12-25T19:27:00.379584",
        "meta_mean_motion": 15.20184593,
        "meta_eccentricity": 0.000236,
        "meta_inclination": 97.4335,
        "meta_ra_of_asc_node": 75.9927,
        "meta_arg_of_pericenter": 40.7758,
        "meta_mean_anomaly": 319.3653,
        "meta_ephemeris_type": 0,
        "meta_classification_type": "U",
        "meta_norad_cat_id": 64900,
        "meta_element_set_no": 999,
        "meta_rev_at_epoch": 2319,
        "meta_bstar": 0.00015834,
        "meta_mean_motion_dot": 3.36e-05,
        "meta_mean_motion_ddot": 0,
        "tle_line1": "1 64900U 25156B   25359.81042106  .00003360  00000+0  15834-3 0  9999",
        "tle_line2": "2 64900  97.4335  75.9927 0002360  40.7758 319.3653 15.20184593 23196"
      },
      "geometry": {
        "type": "Point",
        "coordinates": [
          -85.3287242658787,
          67.45829967211404
        ]
      }
    },
    {
      "type": "Feature",
      "properties": {
        "norad_id": 64901,
        "name": "CO3D 4",
        "group": "resource",
        "lat": 68.27357210322623,
        "lon": -84.53918157790594,
        "alt_km": 497.93818042122894,
        "timestamp": "2025-12-26T03:50:11.745818+00:00",
        "meta_object_name": "CO3D 4",
        "meta_object_id": "2025-156C",
        "meta_epoch": "2025-12-25T19:27:13.413024",
        "meta_mean_motion": 15.20187174,
        "meta_eccentricity": 0.0001324,
        "meta_inclination": 97.4336,
        "meta_ra_of_asc_node": 75.9901,
        "meta_arg_of_pericenter": 150.3858,
        "meta_mean_anomaly": 209.7452,
        "meta_ephemeris_type": 0,
        "meta_classification_type": "U",
        "meta_norad_cat_id": 64901,
        "meta_element_set_no": 999,
        "meta_rev_at_epoch": 2319,
        "meta_bstar": 0.00020855,
        "meta_mean_motion_dot": 4.448e-05,
        "meta_mean_motion_ddot": 0,
        "tle_line1": "1 64901U 25156C   25359.81057191  .00004448  00000+0  20855-3 0  9997",
        "tle_line2": "2 64901  97.4336  75.9901 0001324 150.3858 209.7452 15.20187174 23195"
      },
      "geometry": {
        "type": "Point",
        "coordinates": [
          -84.53918157790594,
          68.27357210322623
        ]
      }
    },
    {
      "type": "Feature",
      "properties": {
        "norad_id": 64902,
        "name": "CO3D 2",
        "group": "resource",
        "lat": -66.1063590124518,
        "lon": 93.3752178933107,
        "alt_km": 512.8428258655513,
        "timestamp": "2025-12-26T03:50:11.745827+00:00",
        "meta_object_name": "CO3D 2",
        "meta_object_id": "2025-156D",
        "meta_epoch": "2025-12-25T20:13:59.394720",
        "meta_mean_motion": 15.20195461,
        "meta_eccentricity": 7.95e-05,
        "meta_inclination": 97.434,
        "meta_ra_of_asc_node": 75.921,
        "meta_arg_of_pericenter": 61.6528,
        "meta_mean_anomaly": 298.4787,
        "meta_ephemeris_type": 0,
        "meta_classification_type": "U",
        "meta_norad_cat_id": 64902,
        "meta_element_set_no": 999,
        "meta_rev_at_epoch": 2319,
        "meta_bstar": 0.00014515,
        "meta_mean_motion_dot": 3.075e-05,
        "meta_mean_motion_ddot": 0,
        "tle_line1": "1 64902U 25156D   25359.84304855  .00003075  00000+0  14515-3 0  9994",
        "tle_line2": "2 64902  97.4340  75.9210 0000795  61.6528 298.4787 15.20195461 23197"
      },
      "geometry": {
        "type": "Point",
        "coordinates": [
          93.3752178933107,
          -66.1063590124518
        ]
      }
    }
  ]
}